[{"CCSDS_OMM_VERS":"2.0","COMMENT":"GENERATED VIA SPACE-TRACK.ORG API","CREATION_DATE":"2021-10-02T19:12:03","ORIGINATOR":"18 SPCS","OBJECT_NAME":"TBA - TO BE ASSIGNED","OBJECT_ID":"1976-077","CENTER_NAME":"EARTH","REF_FRAME":"TEME","TIME_SYSTEM":"UTC","MEAN_ELEMENT_THEORY":"SGP4","EPOCH":"2021-10-02T10:22:45.374304","MEAN_MOTION":"12.32153722","ECCENTRICITY":"0.01755520","INCLINATION":"102.1982","RA_OF_ASC_NODE":"342.8412","ARG_OF_PERICENTER":"209.0241","MEAN_ANOMALY":"162.5148","EPHEMERIS_TYPE":"0","CLASSIFICATION_TYPE":"U","NORAD_CAT_ID":"87561","ELEMENT_SET_NO":"999","REV_AT_EPOCH":"35371","BSTAR":"0.00024849000000","MEAN_MOTION_DOT":"-0.00000013","MEAN_MOTION_DDOT":"0.0000000000000","SEMIMAJOR_AXIS":"7918.178","PERIOD":"116.869","APOAPSIS":"1679.048","PERIAPSIS":"1401.038","OBJECT_TYPE":"TBA","RCS_SIZE":null,"COUNTRY_CODE":null,"LAUNCH_DATE":null,"SITE":null,"DECAY_DATE":null,"FILE":"3140729","GP_ID":"185993672","TLE_LINE0":"0 TBA - TO BE ASSIGNED","TLE_LINE1":"1 87561U 76077    21275.43246961 -.00000013 +00000+0 +24849-3 0  9990","TLE_LINE2":"2 87561 102.1982 342.8412 0175552 209.0241 162.5148 12.32153722353713"},{"CCSDS_OMM_VERS":"2.0","COMMENT":"GENERATED VIA SPACE-TRACK.ORG API","CREATION_DATE":"2021-10-02T19:12:03","ORIGINATOR":"18 SPCS","OBJECT_NAME":"TBA - TO BE ASSIGNED","OBJECT_ID":"1973-086","CENTER_NAME":"EARTH","REF_FRAME":"TEME","TIME_SYSTEM":"UTC","MEAN_ELEMENT_THEORY":"SGP4","EPOCH":"2021-10-02T06:29:44.959200","MEAN_MOTION":"13.12909397","ECCENTRICITY":"0.00763200","INCLINATION":"101.7309","RA_OF_ASC_NODE":"290.1119","ARG_OF_PERICENTER":"116.1268","MEAN_ANOMALY":"244.7715","EPHEMERIS_TYPE":"0","CLASSIFICATION_TYPE":"U","NORAD_CAT_ID":"87557","ELEMENT_SET_NO":"999","REV_AT_EPOCH":"36297","BSTAR":"0.00574100000000","MEAN_MOTION_DOT":"0.00002060","MEAN_MOTION_DDOT":"0.0000000000000","SEMIMAJOR_AXIS":"7590.062","PERIOD":"109.680","APOAPSIS":"1269.855","PERIAPSIS":"1154.000","OBJECT_TYPE":"TBA","RCS_SIZE":null,"COUNTRY_CODE":null,"LAUNCH_DATE":null,"SITE":null,"DECAY_DATE":null,"FILE":"3140729","GP_ID":"185993322","TLE_LINE0":"0 TBA - TO BE ASSIGNED","TLE_LINE1":"1 87557U 73086    21275.27065925 +.00002060 +00000+0 +57410-2 0  9995","TLE_LINE2":"2 87557 101.7309 290.1119 0076320 116.1268 244.7715 13.12909397362972"},{"CCSDS_OMM_VERS":"2.0","COMMENT":"GENERATED VIA SPACE-TRACK.ORG API","CREATION_DATE":"2019-10-01T16:25:27","ORIGINATOR":"18 SPCS","OBJECT_NAME":"TBA - TO BE ASSIGNED","OBJECT_ID":null,"CENTER_NAME":"EARTH","REF_FRAME":"TEME","TIME_SYSTEM":"UTC","MEAN_ELEMENT_THEORY":"SGP4","EPOCH":"2019-10-01T11:18:46.310112","MEAN_MOTION":"14.90013676","ECCENTRICITY":"0.01018110","INCLINATION":"97.8435","RA_OF_ASC_NODE":"0.3453","ARG_OF_PERICENTER":"229.7033","MEAN_ANOMALY":"129.5254","EPHEMERIS_TYPE":"0","CLASSIFICATION_TYPE":"U","NORAD_CAT_ID":"87556","ELEMENT_SET_NO":"999","REV_AT_EPOCH":"27624","BSTAR":"0.00014023000000","MEAN_MOTION_DOT":"0.00001427","MEAN_MOTION_DDOT":"0.0000000000000","SEMIMAJOR_AXIS":"6976.029","PERIOD":"96.643","APOAPSIS":"668.918","PERIAPSIS":"526.871","OBJECT_TYPE":"TBA","RCS_SIZE":null,"COUNTRY_CODE":null,"LAUNCH_DATE":null,"SITE":null,"DECAY_DATE":null,"FILE":"2621581","GP_ID":"140414219","TLE_LINE0":"0 TBA - TO BE ASSIGNED","TLE_LINE1":"1 87556U          19274.47136933 +.00001427 +00000+0 +14023-3 0  9996","TLE_LINE2":"2 87556  97.8435   0.3453 0101811 229.7033 129.5254 14.90013676276248"},{"CCSDS_OMM_VERS":"2.0","COMMENT":"GENERATED VIA SPACE-TRACK.ORG API","CREATION_DATE":"2021-10-02T19:12:03","ORIGINATOR":"18 SPCS","OBJECT_NAME":"TBA - TO BE ASSIGNED","OBJECT_ID":"1976-126","CENTER_NAME":"EARTH","REF_FRAME":"TEME","TIME_SYSTEM":"UTC","MEAN_ELEMENT_THEORY":"SGP4","EPOCH":"2021-10-01T23:01:20.897760","MEAN_MOTION":"13.41828695","ECCENTRICITY":"0.07429680","INCLINATION":"65.6725","RA_OF_ASC_NODE":"63.0945","ARG_OF_PERICENTER":"186.0876","MEAN_ANOMALY":"173.0749","EPHEMERIS_TYPE":"0","CLASSIFICATION_TYPE":"U","NORAD_CAT_ID":"87553","ELEMENT_SET_NO":"999","REV_AT_EPOCH":"38487","BSTAR":"0.00048757000000","MEAN_MOTION_DOT":"0.00001391","MEAN_MOTION_DDOT":"0.0000000000000","SEMIMAJOR_AXIS":"7480.612","PERIOD":"107.316","APOAPSIS":"1658.262","PERIAPSIS":"546.691","OBJECT_TYPE":"TBA","RCS_SIZE":null,"COUNTRY_CODE":null,"LAUNCH_DATE":null,"SITE":null,"DECAY_DATE":null,"FILE":"3140729","GP_ID":"185993425","TLE_LINE0":"0 TBA - TO BE ASSIGNED","TLE_LINE1":"1 87553U 76126    21274.95926965 +.00001391 +00000+0 +48757-3 0  9994","TLE_LINE2":"2 87553  65.6725  63.0945 0742968 186.0876 173.0749 13.41828695384878"},{"CCSDS_OMM_VERS":"2.0","COMMENT":"GENERATED VIA SPACE-TRACK.ORG API","CREATION_DATE":"2021-10-02T19:12:03","ORIGINATOR":"18 SPCS","OBJECT_NAME":"TBA - TO BE ASSIGNED","OBJECT_ID":"1970-025","CENTER_NAME":"EARTH","REF_FRAME":"TEME","TIME_SYSTEM":"UTC","MEAN_ELEMENT_THEORY":"SGP4","EPOCH":"2021-10-02T05:01:40.603872","MEAN_MOTION":"13.34893993","ECCENTRICITY":"0.00610920","INCLINATION":"99.8794","RA_OF_ASC_NODE":"171.8123","ARG_OF_PERICENTER":"357.3078","MEAN_ANOMALY":"158.7387","EPHEMERIS_TYPE":"0","CLASSIFICATION_TYPE":"U","NORAD_CAT_ID":"87541","ELEMENT_SET_NO":"999","REV_AT_EPOCH":"37751","BSTAR":"0.00056072000000","MEAN_MOTION_DOT":"0.00000242","MEAN_MOTION_DDOT":"0.0000000000000","SEMIMAJOR_AXIS":"7506.497","PERIOD":"107.874","APOAPSIS":"1174.221","PERIAPSIS":"1082.503","OBJECT_TYPE":"TBA","RCS_SIZE":null,"COUNTRY_CODE":null,"LAUNCH_DATE":null,"SITE":null,"DECAY_DATE":null,"FILE":"3140729","GP_ID":"185993418","TLE_LINE0":"0 TBA - TO BE ASSIGNED","TLE_LINE1":"1 87541U 70025    21275.20949773 +.00000242 +00000+0 +56072-3 0  9997","TLE_LINE2":"2 87541  99.8794 171.8123 0061092 357.3078 158.7387 13.34893993377511"},{"CCSDS_OMM_VERS":"2.0","COMMENT":"GENERATED VIA SPACE-TRACK.ORG API","CREATION_DATE":"2021-05-19T17:58:15","ORIGINATOR":"18 SPCS","OBJECT_NAME":"TBA - TO BE ASSIGNED","OBJECT_ID":"","CENTER_NAME":"EARTH","REF_FRAME":"TEME","TIME_SYSTEM":"UTC","MEAN_ELEMENT_THEORY":"SGP4","EPOCH":"2021-05-19T11:01:35.137344","MEAN_MOTION":"10.51431555","ECCENTRICITY":"0.23070590","INCLINATION":"63.3680","RA_OF_ASC_NODE":"193.4616","ARG_OF_PERICENTER":"315.8524","MEAN_ANOMALY":"27.9343","EPHEMERIS_TYPE":"0","CLASSIFICATION_TYPE":"U","NORAD_CAT_ID":"87521","ELEMENT_SET_NO":"999","REV_AT_EPOCH":"23594","BSTAR":"0.00106220000000","MEAN_MOTION_DOT":"0.00006053","MEAN_MOTION_DDOT":"0.0000000000000","SEMIMAJOR_AXIS":"8801.321","PERIOD":"136.956","APOAPSIS":"4453.702","PERIAPSIS":"392.669","OBJECT_TYPE":"TBA","RCS_SIZE":null,"COUNTRY_CODE":null,"LAUNCH_DATE":null,"SITE":null,"DECAY_DATE":null,"FILE":"3038648","GP_ID":"177478626","TLE_LINE0":"0 TBA - TO BE ASSIGNED","TLE_LINE1":"1 87521U          21139.45943446 +.00006053 +00000+0 +10622-2 0  9994","TLE_LINE2":"2 87521  63.3680 193.4616 2307059 315.8524  27.9343 10.51431555235946"},{"CCSDS_OMM_VERS":"2.0","COMMENT":"GENERATED VIA SPACE-TRACK.ORG API","CREATION_DATE":"2021-05-18T20:14:44","ORIGINATOR":"18 SPCS","OBJECT_NAME":"TBA - TO BE ASSIGNED","OBJECT_ID":"1999-025","CENTER_NAME":"EARTH","REF_FRAME":"TEME","TIME_SYSTEM":"UTC","MEAN_ELEMENT_THEORY":"SGP4","EPOCH":"2021-05-17T21:28:02.627904","MEAN_MOTION":"13.21024890","ECCENTRICITY":"0.01509170","INCLINATION":"101.6150","RA_OF_ASC_NODE":"192.2640","ARG_OF_PERICENTER":"12.9621","MEAN_ANOMALY":"347.5304","EPHEMERIS_TYPE":"0","CLASSIFICATION_TYPE":"U","NORAD_CAT_ID":"87520","ELEMENT_SET_NO":"999","REV_AT_EPOCH":"35947","BSTAR":"-0.00072586000000","MEAN_MOTION_DOT":"-0.00000368","MEAN_MOTION_DDOT":"0.0000000000000","SEMIMAJOR_AXIS":"7558.945","PERIOD":"109.006","APOAPSIS":"1294.887","PERIAPSIS":"1066.732","OBJECT_TYPE":"TBA","RCS_SIZE":null,"COUNTRY_CODE":null,"LAUNCH_DATE":null,"SITE":null,"DECAY_DATE":null,"FILE":"3037982","GP_ID":"177418077","TLE_LINE0":"0 TBA - TO BE ASSIGNED","TLE_LINE1":"1 87520U 99025    21137.89447486 -.00000368 +00000+0 -72586-3 0  9990","TLE_LINE2":"2 87520 101.6150 192.2640 0150917  12.9621 347.5304 13.21024890359470"},{"CCSDS_OMM_VERS":"2.0","COMMENT":"GENERATED VIA SPACE-TRACK.ORG API","CREATION_DATE":"2020-08-29T20:55:04","ORIGINATOR":"18 SPCS","OBJECT_NAME":"TBA - TO BE ASSIGNED","OBJECT_ID":null,"CENTER_NAME":"EARTH","REF_FRAME":"TEME","TIME_SYSTEM":"UTC","MEAN_ELEMENT_THEORY":"SGP4","EPOCH":"2020-08-28T11:15:33.384096","MEAN_MOTION":"15.98749282","ECCENTRICITY":"0.00224340","INCLINATION":"65.7649","RA_OF_ASC_NODE":"183.8733","ARG_OF_PERICENTER":"211.8231","MEAN_ANOMALY":"148.1590","EPHEMERIS_TYPE":"0","CLASSIFICATION_TYPE":"U","NORAD_CAT_ID":"87518","ELEMENT_SET_NO":"999","REV_AT_EPOCH":"95923","BSTAR":"0.00384460000000","MEAN_MOTION_DOT":"0.01840733","MEAN_MOTION_DDOT":"0.0021009000000","SEMIMAJOR_AXIS":"6656.024","PERIOD":"90.070","APOAPSIS":"292.821","PERIAPSIS":"262.957","OBJECT_TYPE":"TBA","RCS_SIZE":null,"COUNTRY_CODE":null,"LAUNCH_DATE":null,"SITE":null,"DECAY_DATE":null,"FILE":"2810900","GP_ID":"160348074","TLE_LINE0":"0 TBA - TO BE ASSIGNED","TLE_LINE1":"1 87518U          20241.46913639 +.01840733 +21009-2 +38446-2 0  9996","TLE_LINE2":"2 87518 065.7649 183.8733 0022434 211.8231 148.1590 15.98749282959235"}]